{"fetched_at":"2026-03-29T16:36:15Z","count":15609,"tles":[{"name":"STARLINK-30284","line1":"1 57877U 23144P   26087.55339826  .00004120  00000+0  15914-3 0  9991","line2":"2 57877  43.0028 142.0251 0001804 288.8637  71.2019 15.27585867140945","category":"Starlink"}]}